HODOYOSHI-4             
1 40011U 14033B   26167.83234999  .00000417  00000+0  50829-4 0  9995
2 40011  97.5447 352.6721 0022533 309.8541  50.0693 14.88126562648751
DEIMOS-2                
1 40013U 14033D   26167.91519756  .00001170  00000+0  11566-3 0  9994
2 40013  97.5827  42.4139 0001420  47.3664 312.7676 14.93723573637684
HODOYOSHI-3             
1 40015U 14033F   26167.71346999  .00000835  00000+0  10218-3 0  9991
2 40015  97.6416 330.7730 0032740 358.8802   1.2335 14.85387705647557
SPOT 7                  
1 40053U 14034A   26167.83913314  .00000313  00000+0  73162-4 0  9997
2 40053  98.0632 230.3396 0001208  90.2186 269.9153 14.60957985637088
SKYSAT-B                
1 40072U 14037D   26167.85615966  .00001135  00000+0  13026-3 0  9990
2 40072  98.3839 126.8022 0004206 283.2446  76.8299 14.88027256645916
WORLDVIEW-3 (WV-3)      
1 40115U 14048A   26167.83046253  .00000687  00000+0  86723-4 0  9991
2 40115  97.8567 242.6683 0001017  26.6216 333.5051 14.85021515641854
GAOFEN-2                
1 40118U 14049A   26167.83851127 -.00000008  00000+0  59196-5 0  9992
2 40118  98.0113 232.0459 0006077 228.7299 131.3391 14.80896797639189
YAOGAN-21               
1 40143U 14053A   26167.83482399  .00004785  00000+0  18649-3 0  9997
2 40143  97.1471 208.0851 0009948  94.4613 265.7763 15.26367668654904
YAOGAN-22               
1 40275U 14063A   26167.65333071 -.00000057  00000+0 -27541-4 0  9998
2 40275 100.7723 318.9176 0006326 186.4916 173.6114 13.15531127559749
ASNARO                  
1 40298U 14070A   26167.83000998  .00004972  00000+0  23779-3 0  9996
2 40298  97.3451 243.9537 0005465 166.5033 193.6349 15.19426642643953
YAOGAN-24               
1 40310U 14072A   26167.87875314  .00000835  00000+0  12826-3 0  9994
2 40310  98.1488 305.2139 0012519 264.7216  95.2564 14.76223420623673
CBERS 4                 
1 40336U 14079A   26167.82810685 -.00000004  00000+0  13452-4 0  9990
2 40336  98.3534 224.6707 0001865  63.3467 296.7910 14.35508502603902
YAOGAN-26               
1 40362U 14088A   26167.81022075  .00013668  00000+0  26907-3 0  9993
2 40362  97.0638 168.0277 0006013  68.7556 291.4336 15.47332139637640
SMAP                    
1 40376U 15003A   26167.87476340  .00000340  00000+0  74789-4 0  9995
2 40376  98.1276 174.9737 0001326  96.5150 263.6204 14.63366394607574
KOMPSAT-3A              
1 40536U 15014A   26167.85549654  .00020703  00000+0  30016-3 0  9991
2 40536  97.6884 159.1935 0056461 175.6726 184.5027 15.53980045621760
SENTINEL-2A             
1 40697U 15028A   26167.86503995  .00000100  00000+0  54676-4 0  9991
2 40697  98.5690 242.7209 0001093  87.8147 272.3161 14.30815328573685
GAOFEN-8                
1 40701U 15030A   26167.82885169  .00018507  00000+0  38119-3 0  9995
2 40701  97.6896   1.1779 0008647 187.6017 172.5102 15.45943245611399
CARBONITE 1 (CBNT-1)    
1 40718U 15032D   26167.84528367  .00001573  00000+0  19683-3 0  9991
2 40718  97.6498 345.9257 0013195 299.2836  60.7060 14.83586480589297
YAOGAN-27               
1 40878U 15040A   26167.87651984 -.00000156  00000+0 -30043-3 0  9993
2 40878 100.1144 154.2725 0007679 211.1832 148.8827 13.16068592517623
GAOFEN-9 01             
1 40894U 15047A   26167.86014630  .00000808  00000+0  10528-3 0  9996
2 40894  97.6275 203.5699 0028378 138.8247 221.5116 14.82883308580149
YAOGAN-28               
1 41026U 15064A   26167.86416831  .00006188  00000+0  23294-3 0  9993
2 41026  97.3079 306.1318 0010586 184.3761 175.7388 15.27417909590639
YAOGAN-29               
1 41038U 15069A   26167.84047205  .00000619  00000+0  82697-4 0  9990
2 41038  98.0023 196.4725 0002622  55.7722 304.3739 14.83085621570575
KENT RIDGE 1            
1 41167U 15077B   26167.63953934  .00003497  00000+0  11237-3 0  9992
2 41167  14.9791 270.0669 0008233 230.7734 129.1857 15.23129674581012
GAOFEN-4                
1 41194U 15083A   26167.77709462 -.00000337  00000+0  00000+0 0  9992
2 41194   0.3561  83.7693 0004378 115.3795  91.3381  1.00268878 38528
JASON-3                 
1 41240U 16002A   26167.84729075 -.00000069  00000+0 -28116-4 0  9992
2 41240  66.0402 126.5495 0008520 272.8135  87.1909 12.87628051487201
SENTINEL-3A             
1 41335U 16011A   26167.86590524  .00000087  00000+0  53907-4 0  9998
2 41335  98.6249 235.2542 0001402 102.2979 257.8359 14.26739891538012
ZIYUAN 3-02 (ZY 3-02)   
1 41556U 16033A   26167.86085616  .00004151  00000+0  18739-3 0  9997
2 41556  97.3836 243.6421 0011186 290.9606  69.0433 15.21479160557930
CARTOSAT-2C             
1 41599U 16040A   26167.86292188  .00001805  00000+0  88966-4 0  9999
2 41599  97.4480 227.8458 0009944 130.9878 229.2218 15.19185843553666
SKYSAT-C1               
1 41601U 16040C   26167.82554286  .00007596  00000+0  21673-3 0  9993
2 41601  96.9553 199.5650 0003517  59.1033 301.0557 15.36296157557815
LAPAN-A3                
1 41603U 16040E   26167.86480894  .00002856  00000+0  91512-4 0  9996
2 41603  97.1487 164.0210 0010927  26.9179 333.2628 15.33102925554764
GAOFEN-3                
1 41727U 16049A   26167.87584259 -.00000190  00000+0 -44531-4 0  9993
2 41727  98.4003 175.6662 0001392 100.7627 259.3720 14.42214844518600
