OBJECT_NAME,OBJECT_ID,EPOCH,MEAN_MOTION,ECCENTRICITY,INCLINATION,RA_OF_ASC_NODE,ARG_OF_PERICENTER,MEAN_ANOMALY,EPHEMERIS_TYPE,CLASSIFICATION_TYPE,NORAD_CAT_ID,ELEMENT_SET_NO,REV_AT_EPOCH,BSTAR,MEAN_MOTION_DOT,MEAN_MOTION_DDOT
HODOYOSHI-4,2014-033B,2026-06-16T19:58:35.039136,14.88126562,.0022533,97.5447,352.6721,309.8541,50.0693,0,U,40011,999,64875,.50829E-4,.417E-5,0
DEIMOS-2,2014-033D,2026-06-16T21:57:53.069184,14.93723573,.000142,97.5827,42.4139,47.3664,312.7676,0,U,40013,999,63768,.11566E-3,.117E-4,0
HODOYOSHI-3,2014-033F,2026-06-16T17:07:23.807136,14.85387705,.003274,97.6416,330.7730,358.8802,1.2335,0,U,40015,999,64755,.10218E-3,.835E-5,0
SPOT 7,2014-034A,2026-06-16T20:08:21.103296,14.60957985,.0001208,98.0632,230.3396,90.2186,269.9153,0,U,40053,999,63708,.73162E-4,.313E-5,0
SKYSAT-B,2014-037D,2026-06-16T20:32:52.194624,14.88027256,.0004206,98.3839,126.8022,283.2446,76.8299,0,U,40072,999,64591,.13026E-3,.1135E-4,0
WORLDVIEW-3 (WV-3),2014-048A,2026-06-16T19:55:51.962592,14.85021515,.0001017,97.8567,242.6683,26.6216,333.5051,0,U,40115,999,64185,.86723E-4,.687E-5,0
GAOFEN-2,2014-049A,2026-06-16T20:07:27.373728,14.80896797,.0006077,98.0113,232.0459,228.7299,131.3391,0,U,40118,999,63918,.59196E-5,-.8E-7,0
YAOGAN-21,2014-053A,2026-06-16T20:02:08.792736,15.26367668,.0009948,97.1471,208.0851,94.4613,265.7763,0,U,40143,999,65490,.18649E-3,.4785E-4,0
YAOGAN-22,2014-063A,2026-06-16T15:40:47.773344,13.15531127,.0006326,100.7723,318.9176,186.4916,173.6114,0,U,40275,999,55974,-.27541E-4,-.57E-6,0
ASNARO,2014-070A,2026-06-16T19:55:12.862272,15.19426642,.0005465,97.3451,243.9537,166.5033,193.6349,0,U,40298,999,64395,.23779E-3,.4972E-4,0
YAOGAN-24,2014-072A,2026-06-16T21:05:24.271296,14.76223420,.0012519,98.1488,305.2139,264.7216,95.2564,0,U,40310,999,62367,.12826E-3,.835E-5,0
CBERS 4,2014-079A,2026-06-16T19:52:28.431840,14.35508502,.0001865,98.3534,224.6707,63.3467,296.7910,0,U,40336,999,60390,.13452E-4,-.4E-7,0
YAOGAN-26,2014-088A,2026-06-16T19:26:43.072800,15.47332139,.0006013,97.0638,168.0277,68.7556,291.4336,0,U,40362,999,63764,.26907E-3,.13668E-3,0
SMAP,2015-003A,2026-06-16T20:59:39.557760,14.63366394,.0001326,98.1276,174.9737,96.5150,263.6204,0,U,40376,999,60757,.74789E-4,.34E-5,0
KOMPSAT-3A,2015-014A,2026-06-16T20:31:54.901056,15.53980045,.0056461,97.6884,159.1935,175.6726,184.5027,0,U,40536,999,62176,.30016E-3,.20703E-3,0
SENTINEL-2A,2015-028A,2026-06-16T20:45:39.451680,14.30815328,.0001093,98.5690,242.7209,87.8147,272.3161,0,U,40697,999,57368,.54676E-4,.1E-5,0
GAOFEN-8,2015-030A,2026-06-16T19:53:32.786016,15.45943245,.0008647,97.6896,1.1779,187.6017,172.5102,0,U,40701,999,61139,.38119E-3,.18507E-3,0
CARBONITE 1 (CBNT-1),2015-032D,2026-06-16T20:17:12.509088,14.83586480,.0013195,97.6498,345.9257,299.2836,60.7060,0,U,40718,999,58929,.19683E-3,.1573E-4,0
YAOGAN-27,2015-040A,2026-06-16T21:02:11.314176,13.16068592,.0007679,100.1144,154.2725,211.1832,148.8827,0,U,40878,999,51762,-.30043E-3,-.156E-5,0
GAOFEN-9 01,2015-047A,2026-06-16T20:38:36.640320,14.82883308,.0028378,97.6275,203.5699,138.8247,221.5116,0,U,40894,999,58014,.10528E-3,.808E-5,0
YAOGAN-28,2015-064A,2026-06-16T20:44:24.141984,15.27417909,.0010586,97.3079,306.1318,184.3761,175.7388,0,U,41026,999,59063,.23294E-3,.6188E-4,0
YAOGAN-29,2015-069A,2026-06-16T20:10:16.785120,14.83085621,.0002622,98.0023,196.4725,55.7722,304.3739,0,U,41038,999,57057,.82697E-4,.619E-5,0
KENT RIDGE 1,2015-077B,2026-06-16T15:20:56.198976,15.23129674,.0008233,14.9791,270.0669,230.7734,129.1857,0,U,41167,999,58101,.11237E-3,.3497E-4,0
GAOFEN-4,2015-083A,2026-06-16T18:39:00.975168,1.00268878,.0004378,0.3561,83.7693,115.3795,91.3381,0,U,41194,999,3852,0,-.337E-5,0
JASON-3,2016-002A,2026-06-16T20:20:05.920800,12.87628051,.000852,66.0402,126.5495,272.8135,87.1909,0,U,41240,999,48720,-.28116E-4,-.69E-6,0
SENTINEL-3A,2016-011A,2026-06-16T20:46:54.212736,14.26739891,.0001402,98.6249,235.2542,102.2979,257.8359,0,U,41335,999,53801,.53907E-4,.87E-6,0
ZIYUAN 3-02 (ZY 3-02),2016-033A,2026-06-16T20:39:37.972224,15.21479160,.0011186,97.3836,243.6421,290.9606,69.0433,0,U,41556,999,55793,.18739E-3,.4151E-4,0
CARTOSAT-2C,2016-040A,2026-06-16T20:42:36.450432,15.19185843,.0009944,97.4480,227.8458,130.9878,229.2218,0,U,41599,999,55366,.88966E-4,.1805E-4,0
SKYSAT-C1,2016-040C,2026-06-16T19:48:46.903104,15.36296157,.0003517,96.9553,199.5650,59.1033,301.0557,0,U,41601,999,55781,.21673E-3,.7596E-4,0
LAPAN-A3,2016-040E,2026-06-16T20:45:19.492416,15.33102925,.0010927,97.1487,164.0210,26.9179,333.2628,0,U,41603,999,55476,.91512E-4,.2856E-4,0
GAOFEN-3,2016-049A,2026-06-16T21:01:12.799776,14.42214844,.0001392,98.4003,175.6662,100.7627,259.3720,0,U,41727,999,51860,-.44531E-4,-.19E-5,0
